IRIDIUM 16 [-]          
1 24841U 97030F   17346.28665824  .00000118  00000-0  33170-4 0  9998
2 24841  86.4047 275.3946 0004401  73.9281 286.2401 14.36756197 73153
